TRANSIT 16 [?]          
1 02807U 67048A   23003.30474829  .00000132  00000+0  18978-3 0  9998
2 02807  89.6583  29.6024 0019709 348.4750  24.8244 13.50349423738239
TRANSIT 17 [?]          
1 02965U 67092A   23002.56510414  .00000097  00000+0  12568-3 0  9999
2 02965  89.2344 108.0245 0049494 117.2517 254.1463 13.53060443725983
TRANSIT 18 [?]          
1 03133U 68012A   23003.03991273  .00000127  00000+0  17843-3 0  9994
2 03133  90.0119 271.7053 0076378  44.1446 328.9300 13.51188320700555
NNSS 19 [?]             
1 04507U 70067A   23003.40617881  .00000117  00000+0  15115-3 0  9993
2 04507  89.9331 237.8862 0172652 164.6015 196.0486 13.50867820577545
NNSS O-20 [?]           
1 06909U 73081A   23003.50058253  .00000231  00000+0  22597-3 0  9992
2 06909  89.8234 273.6543 0158068  58.1188 303.5245 13.70735610656708
TRANSAT [?]             
1 10457U 77106A   23002.56925815  .00000066  00000+0  89081-4 0  9997
2 10457  89.6758 116.0562 0026407  56.1083 315.6643 13.48702660222725
NOVA I [?]              
1 12458U 81044A   23003.25023039  .00000057  00000+0  11418-3 0  9998
2 12458  89.8847 105.4555 0014759 180.3079 208.0966 13.23086097 10040
NOVA 3 [?]              
1 15362U 84110A   23003.46360626  .00000052  00000+0  10252-3 0  9991
2 15362  90.1041  68.8966 0033218  53.4953 317.6494 13.22851447845225
OSCAR 30 [?]            
1 15935U 85066A   23002.67458045  .00000103  00000+0  17358-3 0  9994
2 15935  90.1814  81.3899 0167421 236.1068 291.5278 13.35783703820995
OSCAR 24 [?]            
1 15936U 85066B   23003.11170644  .00000097  00000+0  16217-3 0  9996
2 15936  90.1781  73.3080 0167862 240.7325 125.3929 13.35642821823195
POLAR BEAR [?]          
1 17070U 86088A   23002.89704708  .00000105  00000+0  97217-4 0  9990
2 17070  89.5732 228.5708 0040783 120.7395 250.3500 13.74900680812084
OSCAR 27 [?]            
1 18361U 87080A   23002.80480435  .00000098  00000+0  14708-3 0  9990
2 18361  90.3359  40.8969 0106002  63.3907 297.8054 13.44593573731104
OSCAR 29 [?]            
1 18362U 87080B   23002.86099921  .00000087  00000+0  12977-3 0  9997
2 18362  90.3373  41.2467 0107953  83.5647  88.6245 13.44179720730684
OSCAR 23 [?]            
1 19070U 88033A   23002.83227406  .00000083  00000+0  15562-3 0  9990
2 19070  90.3246 343.1191 0188198 289.6325 130.7571 13.27545747680176
OSCAR 32 [?]            
1 19071U 88033B   23002.67321512  .00000087  00000+0  16320-3 0  9993
2 19071  90.3248 343.2041 0186381 277.7524 265.0624 13.27724530679982
NOVA 11 [?]             
1 19223U 88052A   23002.65152163  .00000067  00000+0  13772-3 0  9991
2 19223  89.9783  80.3824 0032487  96.7806  18.5337 13.22764149667340
OSCAR 25 [?]            
1 19419U 88074A   23003.51451567  .00000125  00000+0  19813-3 0  9995
2 19419  90.0051  18.0230 0098138  70.9039  86.8124 13.42322898682548
OSCAR 31 [?]            
1 19420U 88074B   23003.52863309  .00000087  00000+0  13352-3 0  9998
2 19420  90.0063  18.2207 0096264  65.1346  99.5333 13.42330792682651
